NORAD_CAT_ID,OBJECT_NAME,OBJECT_TYPE,EPOCH,MEAN_MOTION,ECCENTRICITY,INCLINATION,RA_OF_ASC_NODE,ARG_OF_PERICENTER,MEAN_ANOMALY,BSTAR,MEAN_MOTION_DOT,MEAN_MOTION_DDOT,TLE_LINE0,TLE_LINE1,TLE_LINE2,SEMIMAJOR_AXIS,PERIOD,APOGEE,PERIGEE,DECAYED
53977.0,STARLINK-5094,PAYLOAD,2023-06-21 18:20:18,15.08837667,0.0001074,53.2164,352.161,87.685,272.4265,0.00017614,2.516e-05,0.0,0 STARLINK-5094,1 53977U 22125P   23172.76410317  .00002516  00000-0  17614-3 0  9993,2 53977  53.2164 352.1610 0001074  87.6850 272.4265 15.08837667 39717,6917.888,95.438,540.496,539.01,0.0
53977.0,STARLINK-5094,PAYLOAD,2023-06-22 05:28:00,15.08831103,0.0001126,53.217,350.0788,86.2197,273.8924,0.0003399,5.124e-05,0.0,0 STARLINK-5094,1 53977U 22125P   23173.22778805  .00005124  00000-0  33990-3 0  9997,2 53977  53.2170 350.0788 0001126  86.2197 273.8924 15.08831103 39787,6917.908,95.438,540.552,538.994,0.0
53977.0,STARLINK-5094,PAYLOAD,2023-06-22 22:57:15,15.0884862,0.0001187,53.2173,346.8083,87.7766,272.3362,0.00067765,0.00010516,0.0,0 STARLINK-5094,1 53977U 22125P   23173.95642823  .00010516  00000-0  67765-3 0  9995,2 53977  53.2173 346.8083 0001187  87.7766 272.3362 15.08848620 39890,6917.854,95.437,540.54,538.898,0.0
53977.0,STARLINK-5094,PAYLOAD,2023-06-23 18:01:53,15.08846125,0.0001129,53.2175,343.2399,91.1839,268.9282,0.00034313,5.178e-05,0.0,0 STARLINK-5094,1 53977U 22125P   23174.75130900  .00005178  00000-0  34313-3 0  9993,2 53977  53.2175 343.2399 0001129  91.1839 268.9282 15.08846125 40015,6917.862,95.437,540.508,538.946,0.0
53977.0,STARLINK-5094,PAYLOAD,2023-06-23 22:48:02,15.08855373,0.0001106,53.2174,342.3487,89.5254,270.5865,0.00052795,8.128e-05,0.0,0 STARLINK-5094,1 53977U 22125P   23174.95002612  .00008128  00000-0  52795-3 0  9995,2 53977  53.2174 342.3487 0001106  89.5254 270.5865 15.08855373 40043,6917.833,95.437,540.464,538.933,0.0
53977.0,STARLINK-5094,PAYLOAD,2023-06-24 17:52:40,15.08853063,0.0001102,53.2182,338.7842,105.4029,254.7085,0.00050354,7.738e-05,0.0,0 STARLINK-5094,1 53977U 22125P   23175.74490853  .00007738  00000-0  50354-3 0  9996,2 53977  53.2182 338.7842 0001102 105.4029 254.7085 15.08853063 40165,6917.84,95.437,540.468,538.943,0.0
53977.0,STARLINK-5094,PAYLOAD,2023-06-25 03:24:59,15.08839729,0.0001249,53.2176,336.997,88.7255,271.388,0.0002529,3.739e-05,0.0,0 STARLINK-5094,1 53977U 22125P   23176.14235163  .00003739  00000-0  25290-3 0  9990,2 53977  53.2176 336.9970 0001249  88.7255 271.3880 15.08839729 40224,6917.881,95.438,540.61,538.882,0.0
53977.0,STARLINK-5094,PAYLOAD,2023-06-26 03:15:46,15.0883441,9.99e-05,53.217,332.5378,89.0887,271.022,0.00026127,3.872e-05,0.0,0 STARLINK-5094,1 53977U 22125P   23177.13595514  .00003872  00000-0  26127-3 0  9997,2 53977  53.2170 332.5378 0000999  89.0887 271.0220 15.08834410 40371,6917.897,95.438,540.454,539.071,0.0
53977.0,STARLINK-5094,PAYLOAD,2023-06-27 09:28:06,15.0883869,9.57e-05,53.2161,326.8875,85.7968,274.3133,0.00012375,1.682e-05,0.0,0 STARLINK-5094,1 53977U 22125P   23178.39451654  .00001682  00000-0  12375-3 0  9999,2 53977  53.2161 326.8875 0000957  85.7968 274.3133 15.08838690 40560,6917.884,95.438,540.411,539.087,0.0
53977.0,STARLINK-5094,PAYLOAD,2023-06-27 22:11:10,15.08850888,0.000107,53.2161,324.508,86.6332,273.4783,0.0003479,5.255e-05,0.0,0 STARLINK-5094,1 53977U 22125P   23178.92443282  .00005255  00000-0  34790-3 0  9991,2 53977  53.2161 324.5080 0001070  86.6332 273.4783 15.08850888 40648,6917.847,95.437,540.452,538.972,0.0
53977.0,STARLINK-5094,PAYLOAD,2023-06-28 02:57:20,15.08834673,3.58e-05,53.2164,323.6163,106.4669,253.6362,-2.9873e-05,-7.63e-06,0.0,0 STARLINK-5094,1 53977U 22125P   23179.12315573 -.00000763  00000-0 -29873-4 0  9993,2 53977  53.2164 323.6163 0000358 106.4669 253.6362 15.08834673 40675,6917.897,95.438,540.009,539.514,0.0
53977.0,STARLINK-5094,PAYLOAD,2023-06-28 17:15:48,15.08845218,9.59e-05,53.2158,320.9395,87.647,272.4632,0.00016267,2.302e-05,0.0,0 STARLINK-5094,1 53977U 22125P   23179.71931480  .00002302  00000-0  16267-3 0  9990,2 53977  53.2158 320.9395 0000959  87.6470 272.4632 15.08845218 40768,6917.864,95.437,540.393,539.066,0.0
53977.0,STARLINK-5094,PAYLOAD,2023-06-29 09:09:40,15.08840178,0.0001113,53.2162,317.9664,83.3575,276.7543,0.0001045,1.376e-05,0.0,0 STARLINK-5094,1 53977U 22125P   23180.38171839  .00001376  00000-0  10450-3 0  9997,2 53977  53.2162 317.9664 0001113  83.3575 276.7543 15.08840178 40869,6917.88,95.438,540.515,538.975,0.0
53977.0,STARLINK-5094,PAYLOAD,2023-06-30 15:21:59,15.08845697,0.0001105,53.2166,312.3163,78.7081,281.4035,0.00017509,2.5e-05,0.0,0 STARLINK-5094,1 53977U 22125P   23181.64027669  .00002500  00000-0  17509-3 0  9990,2 53977  53.2166 312.3163 0001105  78.7081 281.4035 15.08845697 41059,6917.863,95.437,540.492,538.964,0.0
53977.0,STARLINK-5094,PAYLOAD,2023-07-01 08:51:14,15.08837324,0.0001011,53.2167,309.0453,78.1682,281.9423,9.3475e-05,1.2e-05,0.0,0 STARLINK-5094,1 53977U 22125P   23182.36892083  .00001200  00000-0  93475-4 0  9993,2 53977  53.2167 309.0453 0001011  78.1682 281.9423 15.08837324 41168,6917.889,95.438,540.453,539.054,0.0
53977.0,STARLINK-5094,PAYLOAD,2023-07-02 15:03:34,15.08843144,9.54e-05,53.2166,303.3949,86.0929,274.0173,0.00011572,1.555e-05,0.0,0 STARLINK-5094,1 53977U 22125P   23183.62747833  .00001555  00000-0  11572-3 0  9995,2 53977  53.2166 303.3949 0000954  86.0929 274.0173 15.08843144 41354,6917.871,95.437,540.396,539.076,0.0
53977.0,STARLINK-5094,PAYLOAD,2023-07-03 08:32:48,15.08836491,9.5e-05,53.2169,300.1244,89.1763,270.9338,2.0763e-05,4.3e-07,0.0,0 STARLINK-5094,1 53977U 22125P   23184.35612141  .00000043  00000-0  20763-4 0  9993,2 53977  53.2169 300.1244 0000950  89.1763 270.9338 15.08836491 41463,6917.891,95.438,540.413,539.099,0.0
53977.0,STARLINK-5094,PAYLOAD,2023-07-04 11:34:22,15.08837878,9.06e-05,53.2183,295.0702,104.555,255.5543,7.989e-05,9.84e-06,0.0,0 STARLINK-5094,1 53977U 22125P   23185.48220390  .00000984  00000-0  79890-4 0  9998,2 53977  53.2183 295.0702 0000906 104.5550 255.5543 15.08837878 41633,6917.887,95.438,540.379,539.125,0.0
53977.0,STARLINK-5094,PAYLOAD,2023-07-05 14:35:55,15.08839747,0.0001024,53.2176,290.0139,81.4453,278.6655,4.6532e-05,4.53e-06,0.0,0 STARLINK-5094,1 53977U 22125P   23186.60828501  .00000453  00000-0  46532-4 0  9999,2 53977  53.2176 290.0139 0001024  81.4453 278.6655 15.08839747 41807,6917.881,95.438,540.455,539.038,0.0
53977.0,STARLINK-5094,PAYLOAD,2023-07-06 23:59:01,15.08846553,9.68e-05,53.2165,283.7695,77.6924,282.4177,8.8997e-05,1.129e-05,0.0,0 STARLINK-5094,1 53977U 22125P   23187.99932011  .00001129  00000-0  88997-4 0  9996,2 53977  53.2165 283.7695 0000968  77.6924 282.4177 15.08846553 42016,6917.86,95.437,540.395,539.056,0.0
53977.0,STARLINK-5094,PAYLOAD,2023-07-08 06:11:21,15.08840994,9.95e-05,53.2167,278.1187,89.1935,270.9171,3.4978e-05,2.69e-06,0.0,0 STARLINK-5094,1 53977U 22125P   23189.25788323  .00000269  00000-0  34978-4 0  9996,2 53977  53.2167 278.1187 0000995  89.1935 270.9171 15.08840994 42202,6917.877,95.437,540.431,539.054,0.0
53977.0,STARLINK-5094,PAYLOAD,2023-07-09 12:23:41,15.08836061,9.7e-05,53.2166,272.4696,90.2587,269.8516,-4.1306e-05,-9.45e-06,0.0,0 STARLINK-5094,1 53977U 22125P   23190.51644883 -.00000945  00000-0 -41306-4 0  9995,2 53977  53.2166 272.4696 0000970  90.2587 269.8516 15.08836061 42392,6917.892,95.438,540.428,539.086,0.0
53977.0,STARLINK-5094,PAYLOAD,2023-07-10 12:14:27,15.08840353,9.42e-05,53.2161,268.0089,91.0238,269.0862,0.00010205,1.337e-05,0.0,0 STARLINK-5094,1 53977U 22125P   23191.51004358  .00001337  00000-0  10205-3 0  9990,2 53977  53.2161 268.0089 0000942  91.0238 269.0862 15.08840353 42547,6917.879,95.438,540.396,539.093,0.0
53977.0,STARLINK-5094,PAYLOAD,2023-07-11 05:43:42,15.08831647,9.67e-05,53.2161,264.7377,87.0794,273.0308,7.0004e-05,8.26e-06,0.0,0 STARLINK-5094,1 53977U 22125P   23192.23869203  .00000826  00000-0  70004-4 0  9994,2 53977  53.2161 264.7377 0000967  87.0794 273.0308 15.08831647 42657,6917.906,95.438,540.44,539.102,0.0
53977.0,STARLINK-5094,PAYLOAD,2023-07-11 15:16:01,15.0883979,9.87e-05,53.2162,262.9537,87.06,273.0505,0.00012638,1.724e-05,0.0,0 STARLINK-5094,1 53977U 22125P   23192.63612651  .00001724  00000-0  12638-3 0  9997,2 53977  53.2162 262.9537 0000987  87.0600 273.0505 15.08839790 42717,6917.881,95.438,540.429,539.063,0.0
53977.0,STARLINK-5094,PAYLOAD,2023-07-13 11:46:49,15.08838749,0.0001059,53.2163,254.6267,92.1892,267.9221,2.7145e-05,1.44e-06,0.0,0 STARLINK-5094,1 53977U 22125P   23194.49085146  .00000144  00000-0  27145-4 0  9991,2 53977  53.2163 254.6267 0001059  92.1892 267.9221 15.08838749 42997,6917.884,95.438,540.482,539.017,0.0
53977.0,STARLINK-5094,PAYLOAD,2023-07-14 10:02:14,15.08818328,0.000146,53.2157,250.462,101.4736,258.642,0.00028038,4.175e-05,0.0,0 STARLINK-5094,1 53977U 22125P   23195.41821885  .00004175  00000-0  28038-3 0  9991,2 53977  53.2157 250.4620 0001460 101.4736 258.6420 15.08818328 43130,6917.947,95.439,540.822,538.802,0.0
53977.0,STARLINK-5094,PAYLOAD,2023-07-14 21:09:55,15.0883942,0.0001059,53.2158,248.3805,90.7853,269.326,9.4306e-05,1.213e-05,0.0,0 STARLINK-5094,1 53977U 22125P   23195.88189068  .00001213  00000-0  94306-4 0  9994,2 53977  53.2158 248.3805 0001059  90.7853 269.3260 15.08839420 43201,6917.882,95.438,540.48,539.015,0.0
53977.0,STARLINK-5094,PAYLOAD,2023-07-16 03:22:15,15.08834889,0.0001154,53.2154,242.7327,76.898,283.214,5.6813e-05,6.16e-06,0.0,0 STARLINK-5094,1 53977U 22125P   23197.14045575  .00000616  00000-0  56813-4 0  9996,2 53977  53.2154 242.7327 0001154  76.8980 283.2140 15.08834889 43392,6917.896,95.438,540.559,538.963,0.0
53977.0,STARLINK-5094,PAYLOAD,2023-07-17 09:34:34,15.08846572,9.87e-05,53.2162,237.0818,87.4915,272.619,3.7523e-05,3.1e-06,0.0,0 STARLINK-5094,1 53977U 22125P   23198.39900934  .00000310  00000-0  37523-4 0  9991,2 53977  53.2162 237.0818 0000987  87.4915 272.6190 15.08846572 43582,6917.86,95.437,540.408,539.043,0.0
